*******************************************************************************
 Revised: Mar 12, 2021             Io  / (Jupiter)                          501

 SATELLITE PHYSICAL PROPERTIES:
  Mean radius (km)       = 1821.6   +- 0.5   Density (g cm^-3) = 3.528 +- 0.006
  GM (km^3/s^2)          = 5959.9155+- 0.004 Geometric Albedo  = 0.63  +- 0.02

 SATELLITE ORBIT (at J2000.0 epoch, 2000-Jan-1.5):
  Semi-major axis, a (km)~ 422,000           Orbital period    ~ 1.77 d
  Eccentricity, e        ~ 0.00472           Rotational period = Synchronous
  Inclination, i  (deg)  ~ 0.0375
*******************************************************************************
 
 
*******************************************************************************
Ephemeris / WWW_USER Sun Apr 11 07:50:00 2021 Pasadena, USA      / Horizons
*******************************************************************************
Target body name: Io (501)                        {source: jup365_merged}
Center body name: Jupiter (599)                   {source: jup365_merged}
Center-site name: BODY CENTER
*******************************************************************************
Start time      : A.D. 1931-Jul-22 12:00:00.0000 TDB
Stop  time      : A.D. 2068-Jun-12 12:00:00.0000 TDB
Step-size       : 14400 minutes
*******************************************************************************
Center geodetic : 0.00000000,0.00000000,0.0000000 {W-lon(deg),Lat(deg),Alt(km)}
Center cylindric: 0.00000000,0.00000000,0.0000000 {W-lon(deg),Dxy(km),Dz(km)}
Center radii    : 71492.0 x 71492.0 x 66854.0 km  {Equator, meridian, pole}    
Output units    : AU-D
Output type     : GEOMETRIC cartesian states
Output format   : 2 (position and velocity)
Reference frame : ICRF
*******************************************************************************
JDTDB
   X     Y     Z
   VX    VY    VZ
*******************************************************************************
$$SOE
2448375.000000000 = A.D. 1991-Apr-28 12:00:00.0000 TDB 
 X = 5.894564394703935E-04 Y = 2.493838021403634E-03 Z = 1.200481252693989E-03
 VX=-9.759597936624042E-03 VY= 1.922688461518901E-03 VZ= 7.543775927206844E-04
2448385.000000000 = A.D. 1991-May-08 12:00:00.0000 TDB 
 X = 1.942284618474707E-03 Y =-1.856484654643468E-03 Z =-8.537288586410997E-04
 VX= 7.284953761380220E-03 VY= 6.151581080290608E-03 VZ= 3.058961171010201E-03
2448395.000000000 = A.D. 1991-May-18 12:00:00.0000 TDB 
 X =-2.783246775116736E-03 Y =-3.231207040834686E-04 Z =-2.009560570344372E-04
 VX= 1.373225270683292E-03 VY=-8.992837259576281E-03 VZ=-4.270080485195073E-03
2448405.000000000 = A.D. 1991-May-28 12:00:00.0000 TDB 
 X = 1.301594493809559E-03 Y = 2.258323472673569E-03 Z = 1.099933015924755E-03
 VX=-8.868485776416513E-03 VY= 4.183067777108672E-03 VZ= 1.848018081508643E-03
2448415.000000000 = A.D. 1991-Jun-07 12:00:00.0000 TDB 
 X = 1.333873265364265E-03 Y =-2.251304855269268E-03 Z =-1.052294453983282E-03
 VX= 8.837242047750816E-03 VY= 4.181389305822026E-03 VZ= 2.144531942570956E-03
2448425.000000000 = A.D. 1991-Jun-17 12:00:00.0000 TDB 
 X =-2.783895108142865E-03 Y = 3.507256587805833E-04 Z = 1.206239218555381E-04
 VX=-1.302747672828030E-03 VY=-8.986089839301496E-03 VZ=-4.311477061203663E-03
2448435.000000000 = A.D. 1991-Jun-27 12:00:00.0000 TDB 
 X = 1.920512185373097E-03 Y = 1.861008794658299E-03 Z = 9.206475831981174E-04
 VX=-7.343732357132195E-03 VY= 6.147362910857766E-03 VZ= 2.810885963704189E-03
2448445.000000000 = A.D. 1991-Jul-07 12:00:00.0000 TDB 
 X = 6.291234317248232E-04 Y =-2.486620413331054E-03 Z =-1.176356627248667E-03
 VX= 9.759920994976325E-03 VY= 1.913559989314815E-03 VZ= 1.077685280219674E-03
2448455.000000000 = A.D. 1991-Jul-17 12:00:00.0000 TDB 
 X =-2.588194210186739E-03 Y = 9.994130173348245E-04 Z = 4.334461399369336E-04
 VX=-3.886576118112790E-03 VY=-8.341561868481577E-03 VZ=-4.047051031327448E-03
2448465.000000000 = A.D. 1991-Jul-27 12:00:00.0000 TDB 
 X = 2.400939832916273E-03 Y = 1.331413912169444E-03 Z = 6.759553937614320E-04
 VX=-5.296110889307600E-03 VY= 7.672879940827394E-03 VZ= 3.573050452162809E-03
2448475.000000000 = A.D. 1991-Aug-06 12:00:00.0000 TDB 
 X =-1.209650522949559E-04 Y =-2.544676371769625E-03 Z =-1.216593200014410E-03
 VX= 9.987320796369163E-03 VY=-4.873722935956157E-04 VZ=-6.418174528496941E-05
2448485.000000000 = A.D. 1991-Aug-16 12:00:00.0000 TDB 
 X =-2.209750761636281E-03 Y = 1.577461721346363E-03 Z = 7.155958930984942E-04
 VX=-6.195916349996924E-03 VY=-7.104926681612712E-03 VZ=-3.495587943374440E-03
2448495.000000000 = A.D. 1991-Aug-26 12:00:00.0000 TDB 
 X = 2.709526011568296E-03 Y = 7.066103831285963E-04 Z = 3.829936809103834E-04
 VX=-2.868165361600695E-03 VY= 8.653555334491770E-03 VZ= 4.081583669318842E-03
2448505.000000000 = A.D. 1991-Sep-05 12:00:00.0000 TDB 
 X =-8.638747610155611E-04 Y =-2.421225221742014E-03 Z =-1.170118221702939E-03
 VX= 9.503122920957471E-03 VY=-2.853246857255084E-03 VZ=-1.201120876387530E-03
2448515.000000000 = A.D. 1991-Sep-15 12:00:00.0000 TDB 
 X =-1.675572502140516E-03 Y = 2.044195367840935E-03 Z = 9.472197425828406E-04
 VX=-8.065527297944639E-03 VY=-5.363706881860792E-03 VZ=-2.696089257593532E-03
2448525.000000000 = A.D. 1991-Sep-25 12:00:00.0000 TDB 
 X = 2.824174243921986E-03 Y = 3.237875978542190E-05 Z = 6.322766605527335E-05
 VX=-2.352762571731282E-04 VY= 9.017361632989418E-03 VZ= 4.299213868101835E-03
2448535.000000000 = A.D. 1991-Oct-05 12:00:00.0000 TDB 
 X =-1.545497233872638E-03 Y =-2.124622738441608E-03 Z =-1.040016803294466E-03
 VX= 8.343301101584356E-03 VY=-5.013261801807063E-03 VZ=-2.251075556367688E-03
2448545.000000000 = A.D. 1991-Oct-15 12:00:00.0000 TDB 
 X =-1.023119913558243E-03 Y = 2.366537381489983E-03 Z = 1.111927668142280E-03
 VX=-9.363083661018451E-03 VY=-3.242022494995583E-03 VZ=-1.705579093213044E-03
2448555.000000000 = A.D. 1991-Oct-25 12:00:00.0000 TDB 
 X = 2.736931193649047E-03 Y =-6.439802228319826E-04 Z =-2.609095406936655E-04
 VX= 2.418223271817411E-03 VY= 8.738796820471717E-03 VZ= 4.210748782634580E-03
2448565.000000000 = A.D. 1991-Nov-04 12:00:00.0000 TDB 
 X =-2.118097043222690E-03 Y =-1.675321222160335E-03 Z =-8.352580789755107E-04
 VX= 6.588199535218355E-03 VY=-6.816311566231524E-03 VZ=-3.140653187129964E-03
2448575.000000000 = A.D. 1991-Nov-14 12:00:00.0000 TDB 
 X =-2.983299212565266E-04 Y = 2.521998563864969E-03 Z = 1.198233979168520E-03
 VX=-9.996163788887538E-03 VY=-8.900796573933182E-04 VZ=-5.941632358927837E-04
2448585.000000000 = A.D. 1991-Nov-24 12:00:00.0000 TDB 
 X = 2.454786050517212E-03 Y =-1.272994753672711E-03 Z =-5.657097159917057E-04
 VX= 4.899568523824270E-03 VY= 7.837093681616447E-03 VZ= 3.822172260152595E-03
2448595.000000000 = A.D. 1991-Dec-04 12:00:00.0000 TDB 
 X =-2.539223050874021E-03 Y =-1.105895659364152E-03 Z =-5.706791237725644E-04
 VX= 4.365632725893642E-03 VY=-8.131443486081941E-03 VZ=-3.805282872874198E-03
2448605.000000000 = A.D. 1991-Dec-14 12:00:00.0000 TDB 
 X = 4.479005129081448E-04 Y = 2.499288844736535E-03 Z = 1.199913443767546E-03
 VX=-9.920038038341739E-03 VY= 1.524869918174267E-03 VZ= 5.591162497399194E-04
2448615.000000000 = A.D. 1991-Dec-24 12:00:00.0000 TDB 
 X = 1.997611024558736E-03 Y =-1.810797147536826E-03 Z =-8.299229489736096E-04
 VX= 7.035310034630748E-03 VY= 6.375805090199707E-03 VZ= 3.160940754446650E-03
2448625.000000000 = A.D. 1992-Jan-03 12:00:00.0000 TDB 
 X =-2.779135949863039E-03 Y =-4.562436478430824E-04 Z =-2.648158460113650E-04
 VX= 1.831277206883116E-03 VY=-8.866288670316766E-03 VZ=-4.198349343309481E-03
2448635.000000000 = A.D. 1992-Jan-13 12:00:00.0000 TDB 
 X = 1.162986253290806E-03 Y = 2.300081793892931E-03 Z = 1.116899939125185E-03
 VX=-9.139162920891257E-03 VY= 3.831521327840785E-03 VZ= 1.672492007560129E-03
2448645.000000000 = A.D. 1992-Jan-23 12:00:00.0000 TDB 
 X = 1.399108375103147E-03 Y =-2.218709915163502E-03 Z =-1.034540274379226E-03
 VX= 8.670449204732821E-03 VY= 4.459472897926568E-03 VZ= 2.274353372511786E-03
2448655.000000000 = A.D. 1992-Feb-02 12:00:00.0000 TDB 
 X =-2.819806211789538E-03 Y = 2.261014633877970E-04 Z = 5.995515567150201E-05
 VX=-8.304058804737238E-04 VY=-8.968255781062541E-03 VZ=-4.291702940094261E-03
2448665.000000000 = A.D. 1992-Feb-12 12:00:00.0000 TDB 
 X = 1.796055035302050E-03 Y = 1.938121707219486E-03 Z = 9.549018025898959E-04
 VX=-7.710325448464282E-03 VY= 5.864847516763402E-03 VZ= 2.666298591661792E-03
2448675.000000000 = A.D. 1992-Feb-22 12:00:00.0000 TDB 
 X = 7.013835602688633E-04 Y =-2.468244904278528E-03 Z =-1.165284195138454E-03
 VX= 9.690318777081727E-03 VY= 2.222703188320299E-03 VZ= 1.224709459812319E-03
2448685.000000000 = A.D. 1992-Mar-03 12:00:00.0000 TDB 
 X =-2.658230369005895E-03 Y = 8.934169518621094E-04 Z = 3.809266336546634E-04
 VX=-3.434078768768706E-03 VY=-8.430039707384460E-03 VZ=-4.078811711079171E-03
2448695.000000000 = A.D. 1992-Mar-13 12:00:00.0000 TDB 
 X = 2.302770155731008E-03 Y = 1.438822822831104E-03 Z = 7.253106585242356E-04
 VX=-5.734095406940312E-03 VY= 7.481117733413639E-03 VZ= 3.470338059772526E-03
2448705.000000000 = A.D. 1992-Mar-23 12:00:00.0000 TDB 
 X =-4.465496753865626E-05 Y =-2.541980615147283E-03 Z =-1.212993817680241E-03
 VX= 1.001969164631268E-02 VY=-1.729224076468281E-04 VZ= 8.782209059438649E-05
2448715.000000000 = A.D. 1992-Apr-02 12:00:00.0000 TDB 
 X =-2.306052558612711E-03 Y = 1.496473227815045E-03 Z = 6.744255239517988E-04
 VX=-5.790052648564721E-03 VY=-7.290759105500063E-03 VZ=-3.575152666419885E-03
2448725.000000000 = A.D. 1992-Apr-12 12:00:00.0000 TDB 
 X = 2.646790661285739E-03 Y = 8.371478552922318E-04 Z = 4.441891733647928E-04
 VX=-3.352407381141675E-03 VY= 8.565680730170579E-03 VZ= 4.027566973628440E-03
2448735.000000000 = A.D. 1992-Apr-22 12:00:00.0000 TDB 
 X =-7.868390955869969E-04 Y =-2.434867761025356E-03 Z =-1.174404031839464E-03
 VX= 9.636876337259355E-03 VY=-2.559035271450028E-03 VZ=-1.056383726683784E-03
